{
  "type": "FeatureCollection",
  "features": [
    {
      "type": "Feature",
      "properties": {
        "norad_id": 67018,
        "name": "STARLINK-36106",
        "group": "last-30-days",
        "lat": 56.38872846186714,
        "lon": 84.75278688856291,
        "alt_km": 299.7039952397299,
        "timestamp": "2025-12-21T14:40:46.636828+00:00",
        "meta_object_name": "STARLINK-36106",
        "meta_object_id": "2025-293R",
        "meta_epoch": "2025-12-21T06:00:00.999648",
        "meta_mean_motion": 15.89884804,
        "meta_eccentricity": 0.00045483,
        "meta_inclination": 69.9928,
        "meta_ra_of_asc_node": 299.0436,
        "meta_arg_of_pericenter": 273.492,
        "meta_mean_anomaly": 294.8975,
        "meta_ephemeris_type": 0,
        "meta_classification_type": "U",
        "meta_norad_cat_id": 67018,
        "meta_element_set_no": 999,
        "meta_rev_at_epoch": 159,
        "meta_bstar": -0.00054403888,
        "meta_mean_motion_dot": -0.00163781,
        "meta_mean_motion_ddot": 1.268759e-05,
        "tle_line1": "1 67018U 25293R   25355.25001157 -.00163781  12688-4 -54404-3 0  9991",
        "tle_line2": "2 67018  69.9928 299.0436 0004548 273.4920 294.8975 15.89884804  1592"
      },
      "geometry": {
        "type": "Point",
        "coordinates": [
          84.75278688856291,
          56.38872846186714
        ]
      }
    },
    {
      "type": "Feature",
      "properties": {
        "norad_id": 67019,
        "name": "STARLINK-35688",
        "group": "last-30-days",
        "lat": 54.49178684286669,
        "lon": 87.28351696791117,
        "alt_km": 299.6362572774451,
        "timestamp": "2025-12-21T14:40:46.636838+00:00",
        "meta_object_name": "STARLINK-35688",
        "meta_object_id": "2025-293S",
        "meta_epoch": "2025-12-21T06:00:00.999648",
        "meta_mean_motion": 15.8993057,
        "meta_eccentricity": 0.00042604,
        "meta_inclination": 69.9926,
        "meta_ra_of_asc_node": 299.0406,
        "meta_arg_of_pericenter": 273.0376,
        "meta_mean_anomaly": 297.6815,
        "meta_ephemeris_type": 0,
        "meta_classification_type": "U",
        "meta_norad_cat_id": 67019,
        "meta_element_set_no": 999,
        "meta_rev_at_epoch": 167,
        "meta_bstar": -0.00063455502,
        "meta_mean_motion_dot": -0.00191233,
        "meta_mean_motion_ddot": 1.5852309e-05,
        "tle_line1": "1 67019U 25293S   25355.25001157 -.00191233  15852-4 -63456-3 0  9998",
        "tle_line2": "2 67019  69.9926 299.0406 0004260 273.0376 297.6815 15.89930570  1675"
      },
      "geometry": {
        "type": "Point",
        "coordinates": [
          87.28351696791117,
          54.49178684286669
        ]
      }
    },
    {
      "type": "Feature",
      "properties": {
        "norad_id": 67020,
        "name": "STARLINK-36172",
        "group": "last-30-days",
        "lat": 52.03541434204866,
        "lon": 90.15178006712765,
        "alt_km": 299.7958452294715,
        "timestamp": "2025-12-21T14:40:46.636848+00:00",
        "meta_object_name": "STARLINK-36172",
        "meta_object_id": "2025-293T",
        "meta_epoch": "2025-12-21T06:00:00.999648",
        "meta_mean_motion": 15.89960844,
        "meta_eccentricity": 0.00042109,
        "meta_inclination": 69.9927,
        "meta_ra_of_asc_node": 299.0375,
        "meta_arg_of_pericenter": 274.0051,
        "meta_mean_anomaly": 299.6661,
        "meta_ephemeris_type": 0,
        "meta_classification_type": "U",
        "meta_norad_cat_id": 67020,
        "meta_element_set_no": 999,
        "meta_rev_at_epoch": 159,
        "meta_bstar": -0.00062384591,
        "meta_mean_motion_dot": -0.0018831,
        "meta_mean_motion_ddot": 1.5497562e-05,
        "tle_line1": "1 67020U 25293T   25355.25001157 -.00188310  15498-4 -62385-3 0  9998",
        "tle_line2": "2 67020  69.9927 299.0375 0004210 274.0051 299.6661 15.89960844  1598"
      },
      "geometry": {
        "type": "Point",
        "coordinates": [
          90.15178006712765,
          52.03541434204866
        ]
      }
    },
    {
      "type": "Feature",
      "properties": {
        "norad_id": 67021,
        "name": "STARLINK-36184",
        "group": "last-30-days",
        "lat": 49.739892848394256,
        "lon": 92.50211279181748,
        "alt_km": 300.0102861870655,
        "timestamp": "2025-12-21T14:40:46.636858+00:00",
        "meta_object_name": "STARLINK-36184",
        "meta_object_id": "2025-293U",
        "meta_epoch": "2025-12-21T06:00:00.999648",
        "meta_mean_motion": 15.89984309,
        "meta_eccentricity": 0.00043114,
        "meta_inclination": 69.9928,
        "meta_ra_of_asc_node": 299.0339,
        "meta_arg_of_pericenter": 273.673,
        "meta_mean_anomaly": 302.6955,
        "meta_ephemeris_type": 0,
        "meta_classification_type": "U",
        "meta_norad_cat_id": 67021,
        "meta_element_set_no": 999,
        "meta_rev_at_epoch": 159,
        "meta_bstar": -0.00059378856,
        "meta_mean_motion_dot": -0.00179517,
        "meta_mean_motion_ddot": 1.4452896e-05,
        "tle_line1": "1 67021U 25293U   25355.25001157 -.00179517  14453-4 -59379-3 0  9997",
        "tle_line2": "2 67021  69.9928 299.0339 0004311 273.6730 302.6955 15.89984309  1594"
      },
      "geometry": {
        "type": "Point",
        "coordinates": [
          92.50211279181748,
          49.739892848394256
        ]
      }
    },
    {
      "type": "Feature",
      "properties": {
        "norad_id": 67022,
        "name": "STARLINK-36209",
        "group": "last-30-days",
        "lat": 47.17165514709213,
        "lon": 94.83534078596352,
        "alt_km": 301.32127160222444,
        "timestamp": "2025-12-21T14:40:46.636872+00:00",
        "meta_object_name": "STARLINK-36209",
        "meta_object_id": "2025-293V",
        "meta_epoch": "2025-12-21T06:00:00.999648",
        "meta_mean_motion": 15.90304315,
        "meta_eccentricity": 0.00038673,
        "meta_inclination": 69.9926,
        "meta_ra_of_asc_node": 299.0304,
        "meta_arg_of_pericenter": 271.3703,
        "meta_mean_anomaly": 308.0979,
        "meta_ephemeris_type": 0,
        "meta_classification_type": "U",
        "meta_norad_cat_id": 67022,
        "meta_element_set_no": 999,
        "meta_rev_at_epoch": 159,
        "meta_bstar": -0.0042875553,
        "meta_mean_motion_dot": -0.01302209,
        "meta_mean_motion_ddot": 0.00048397106,
        "tle_line1": "1 67022U 25293V   25355.25001157 -.01302209  48397-3 -42876-2 0  9991",
        "tle_line2": "2 67022  69.9926 299.0304 0003867 271.3703 308.0979 15.90304315  1596"
      },
      "geometry": {
        "type": "Point",
        "coordinates": [
          94.83534078596352,
          47.17165514709213
        ]
      }
    },
    {
      "type": "Feature",
      "properties": {
        "norad_id": 67023,
        "name": "STARLINK-36191",
        "group": "last-30-days",
        "lat": 44.71377608240858,
        "lon": 96.8323796019952,
        "alt_km": 300.3923304972577,
        "timestamp": "2025-12-21T14:40:46.636884+00:00",
        "meta_object_name": "STARLINK-36191",
        "meta_object_id": "2025-293W",
        "meta_epoch": "2025-12-21T06:00:00.999648",
        "meta_mean_motion": 15.90056472,
        "meta_eccentricity": 0.00042959,
        "meta_inclination": 69.9925,
        "meta_ra_of_asc_node": 299.0267,
        "meta_arg_of_pericenter": 273.6117,
        "meta_mean_anomaly": 308.488,
        "meta_ephemeris_type": 0,
        "meta_classification_type": "U",
        "meta_norad_cat_id": 67023,
        "meta_element_set_no": 999,
        "meta_rev_at_epoch": 148,
        "meta_bstar": -0.00064177891,
        "meta_mean_motion_dot": -0.00194624,
        "meta_mean_motion_ddot": 1.6293373e-05,
        "tle_line1": "1 67023U 25293W   25355.25001157 -.00194624  16293-4 -64178-3 0  9992",
        "tle_line2": "2 67023  69.9925 299.0267 0004295 273.6117 308.4880 15.90056472  1485"
      },
      "geometry": {
        "type": "Point",
        "coordinates": [
          96.8323796019952,
          44.71377608240858
        ]
      }
    },
    {
      "type": "Feature",
      "properties": {
        "norad_id": 67024,
        "name": "STARLINK-36192",
        "group": "last-30-days",
        "lat": 42.09392017685278,
        "lon": 98.75789385598391,
        "alt_km": 300.58069689509284,
        "timestamp": "2025-12-21T14:40:46.636894+00:00",
        "meta_object_name": "STARLINK-36192",
        "meta_object_id": "2025-293X",
        "meta_epoch": "2025-12-21T06:00:00.999648",
        "meta_mean_motion": 15.9009065,
        "meta_eccentricity": 0.00042067,
        "meta_inclination": 69.9928,
        "meta_ra_of_asc_node": 299.0237,
        "meta_arg_of_pericenter": 274.1004,
        "meta_mean_anomaly": 310.9242,
        "meta_ephemeris_type": 0,
        "meta_classification_type": "U",
        "meta_norad_cat_id": 67024,
        "meta_element_set_no": 999,
        "meta_rev_at_epoch": 159,
        "meta_bstar": -0.00065582608,
        "meta_mean_motion_dot": -0.0019919,
        "meta_mean_motion_ddot": 1.6879773e-05,
        "tle_line1": "1 67024U 25293X   25355.25001157 -.00199190  16880-4 -65583-3 0  9999",
        "tle_line2": "2 67024  69.9928 299.0237 0004206 274.1004 310.9242 15.90090650  1597"
      },
      "geometry": {
        "type": "Point",
        "coordinates": [
          98.75789385598391,
          42.09392017685278
        ]
      }
    }
  ]
}